CAS500-2 RIDESHARE OBJE*
1 68980U 26100A   26129.64327513  .00001005  00000+0  10880-3 0  9996
2 68980  97.7401  27.8012 0005658 277.6693  82.3882 14.90413764   948
