{
  "norad_id": 68980,
  "name": "CAS500-2 RIDESHARE OBJECT A",
  "history": [
    {
      "epoch": "2026-05-09T15:26:18.971232Z",
      "apogee_km": 600.5908199286714,
      "perigee_km": 592.6981571962151,
      "latitude_deg": -3.597412912815643e-05,
      "longitude_deg": -71.23574910879604,
      "height_km": 599.1642449074262,
      "semi_major_axis_km": 6974.781488562443,
      "eccentricity": 0.0005658,
      "inclination_deg": 97.7401,
      "raan_deg": 27.8012,
      "arg_perigee_deg": 277.6693,
      "mean_anomaly_deg": 82.3882,
      "mean_motion_rev_day": 14.90413764
    }
  ]
}